STARLINK-35560          
1 66059U 25235B   25318.59098703  .00085434  00000+0  15241-2 0  9991
2 66059  53.1597  61.7103 0001894  92.7671 267.3555 15.49369641  5275
STARLINK-35558          
1 66060U 25235C   25318.75003471  .00104045  00000+0  25801-2 0  9992
2 66060  53.1598  61.0528 0001384  63.8217  52.5180 15.39568958  5371
STARLINK-35566          
1 66061U 25235D   25318.78381961  .00131495  00000+0  23325-2 0  9997
2 66061  53.1597  60.7805 0000751   2.3576 357.7437 15.49311756  5309
STARLINK-35421          
1 66062U 25235E   25318.75003471 -.02001353  00000+0 -48967-1 0  9993
2 66062  53.1598  60.9634 0001383  61.4400  99.6819 15.43704325  5372
STARLINK-35562          
1 66063U 25235F   25318.78314954  .00088726  00000+0  15871-2 0  9992
2 66063  53.1599  60.7753 0001134  81.4497 278.6641 15.49277067  5305
STARLINK-35542          
1 66064U 25235G   25318.75003471  .00105952  00000+0  26246-2 0  9998
2 66064  53.1602  61.1552 0001098  82.0932 342.6715 15.39590728  5375
STARLINK-35375          
1 66065U 25235H   25318.75003471  .00122320  00000+0  30234-2 0  9999
2 66065  53.1598  61.1044 0000926  58.8572  31.6974 15.39577141  5372
STARLINK-35179          
1 66066U 25235J   25318.75003471  .00088688  00000+0  22062-2 0  9998
2 66066  53.1594  61.0019 0001162  60.7089  81.4234 15.39554532  5379
STARLINK-35401          
1 66067U 25235K   25318.75003471 -.02009507  00000+0 -45767-1 0  9992
2 66067  53.1596  60.9286 0001206  68.5381 109.7255 15.45803427  5325
STARLINK-35422          
1 66068U 25235L   25318.58789451  .00093953  00000+0  16736-2 0  9992
2 66068  53.1597  61.6883 0001102 121.7751 238.3365 15.49368779  5248
STARLINK-35279          
1 66069U 25235M   25318.78108169  .00079826  00000+0  14274-2 0  9994
2 66069  53.1598  60.7620 0000864  74.2514 285.8590 15.49334172  5306
STARLINK-35295          
1 66070U 25235N   25318.71588193  .00080289  00000+0  14345-2 0  9992
2 66070  53.1598  61.0662 0000806  77.1167 282.9932 15.49355242  5297
