CCSDS_OMM_VERS = 2.0
CREATION_DATE  = 
ORIGINATOR     = 

OBJECT_NAME    = STARLINK-35560
OBJECT_ID      = 2025-235B
CENTER_NAME    = EARTH
REF_FRAME      = TEME
TIME_SYSTEM    = UTC
MEAN_ELEMENT_THEORY = SGP/SGP4

EPOCH          = 2025-11-14T14:11:01.279392
MEAN_MOTION    = 15.49369641
ECCENTRICITY   = .0001894
INCLINATION    = 53.1597
RA_OF_ASC_NODE = 61.7103
ARG_OF_PERICENTER = 92.7671
MEAN_ANOMALY   = 267.3555

EPHEMERIS_TYPE = 0
CLASSIFICATION_TYPE = U
NORAD_CAT_ID   = 66059
ELEMENT_SET_NO = 999
REV_AT_EPOCH   = 527
BSTAR          = .15241E-2
MEAN_MOTION_DOT = .85434E-3
MEAN_MOTION_DDOT = 0

CCSDS_OMM_VERS = 2.0
CREATION_DATE  = 
ORIGINATOR     = 

OBJECT_NAME    = STARLINK-35558
OBJECT_ID      = 2025-235C
CENTER_NAME    = EARTH
REF_FRAME      = TEME
TIME_SYSTEM    = UTC
MEAN_ELEMENT_THEORY = SGP/SGP4

EPOCH          = 2025-11-14T18:00:02.998944
MEAN_MOTION    = 15.39568958
ECCENTRICITY   = .0001384
INCLINATION    = 53.1598
RA_OF_ASC_NODE = 61.0528
ARG_OF_PERICENTER = 63.8217
MEAN_ANOMALY   = 52.5180

EPHEMERIS_TYPE = 0
CLASSIFICATION_TYPE = U
NORAD_CAT_ID   = 66060
ELEMENT_SET_NO = 999
REV_AT_EPOCH   = 537
BSTAR          = .25801E-2
MEAN_MOTION_DOT = .104045E-2
MEAN_MOTION_DDOT = 0

CCSDS_OMM_VERS = 2.0
CREATION_DATE  = 
ORIGINATOR     = 

OBJECT_NAME    = STARLINK-35566
OBJECT_ID      = 2025-235D
CENTER_NAME    = EARTH
REF_FRAME      = TEME
TIME_SYSTEM    = UTC
MEAN_ELEMENT_THEORY = SGP/SGP4

EPOCH          = 2025-11-14T18:48:42.014304
MEAN_MOTION    = 15.49311756
ECCENTRICITY   = .0000751
INCLINATION    = 53.1597
RA_OF_ASC_NODE = 60.7805
ARG_OF_PERICENTER = 2.3576
MEAN_ANOMALY   = 357.7437

EPHEMERIS_TYPE = 0
CLASSIFICATION_TYPE = U
NORAD_CAT_ID   = 66061
ELEMENT_SET_NO = 999
REV_AT_EPOCH   = 530
BSTAR          = .23325E-2
MEAN_MOTION_DOT = .131495E-2
MEAN_MOTION_DDOT = 0

CCSDS_OMM_VERS = 2.0
CREATION_DATE  = 
ORIGINATOR     = 

OBJECT_NAME    = STARLINK-35421
OBJECT_ID      = 2025-235E
CENTER_NAME    = EARTH
REF_FRAME      = TEME
TIME_SYSTEM    = UTC
MEAN_ELEMENT_THEORY = SGP/SGP4

EPOCH          = 2025-11-14T18:00:02.998944
MEAN_MOTION    = 15.43704325
ECCENTRICITY   = .0001383
INCLINATION    = 53.1598
RA_OF_ASC_NODE = 60.9634
ARG_OF_PERICENTER = 61.4400
MEAN_ANOMALY   = 99.6819

EPHEMERIS_TYPE = 0
CLASSIFICATION_TYPE = U
NORAD_CAT_ID   = 66062
ELEMENT_SET_NO = 999
REV_AT_EPOCH   = 537
BSTAR          = -.48967E-1
MEAN_MOTION_DOT = -.2001353E-1
MEAN_MOTION_DDOT = 0

CCSDS_OMM_VERS = 2.0
CREATION_DATE  = 
ORIGINATOR     = 

OBJECT_NAME    = STARLINK-35562
OBJECT_ID      = 2025-235F
CENTER_NAME    = EARTH
REF_FRAME      = TEME
TIME_SYSTEM    = UTC
MEAN_ELEMENT_THEORY = SGP/SGP4

EPOCH          = 2025-11-14T18:47:44.120256
MEAN_MOTION    = 15.49277067
ECCENTRICITY   = .0001134
INCLINATION    = 53.1599
RA_OF_ASC_NODE = 60.7753
ARG_OF_PERICENTER = 81.4497
MEAN_ANOMALY   = 278.6641

EPHEMERIS_TYPE = 0
CLASSIFICATION_TYPE = U
NORAD_CAT_ID   = 66063
ELEMENT_SET_NO = 999
REV_AT_EPOCH   = 530
BSTAR          = .15871E-2
MEAN_MOTION_DOT = .88726E-3
MEAN_MOTION_DDOT = 0

CCSDS_OMM_VERS = 2.0
CREATION_DATE  = 
ORIGINATOR     = 

OBJECT_NAME    = STARLINK-35542
OBJECT_ID      = 2025-235G
CENTER_NAME    = EARTH
REF_FRAME      = TEME
TIME_SYSTEM    = UTC
MEAN_ELEMENT_THEORY = SGP/SGP4

EPOCH          = 2025-11-14T18:00:02.998944
MEAN_MOTION    = 15.39590728
ECCENTRICITY   = .0001098
INCLINATION    = 53.1602
RA_OF_ASC_NODE = 61.1552
ARG_OF_PERICENTER = 82.0932
MEAN_ANOMALY   = 342.6715

EPHEMERIS_TYPE = 0
CLASSIFICATION_TYPE = U
NORAD_CAT_ID   = 66064
ELEMENT_SET_NO = 999
REV_AT_EPOCH   = 537
BSTAR          = .26246E-2
MEAN_MOTION_DOT = .105952E-2
MEAN_MOTION_DDOT = 0

CCSDS_OMM_VERS = 2.0
CREATION_DATE  = 
ORIGINATOR     = 

OBJECT_NAME    = STARLINK-35375
OBJECT_ID      = 2025-235H
CENTER_NAME    = EARTH
REF_FRAME      = TEME
TIME_SYSTEM    = UTC
MEAN_ELEMENT_THEORY = SGP/SGP4

EPOCH          = 2025-11-14T18:00:02.998944
MEAN_MOTION    = 15.39577141
ECCENTRICITY   = .0000926
INCLINATION    = 53.1598
RA_OF_ASC_NODE = 61.1044
ARG_OF_PERICENTER = 58.8572
MEAN_ANOMALY   = 31.6974

EPHEMERIS_TYPE = 0
CLASSIFICATION_TYPE = U
NORAD_CAT_ID   = 66065
ELEMENT_SET_NO = 999
REV_AT_EPOCH   = 537
BSTAR          = .30234E-2
MEAN_MOTION_DOT = .12232E-2
MEAN_MOTION_DDOT = 0

CCSDS_OMM_VERS = 2.0
CREATION_DATE  = 
ORIGINATOR     = 

OBJECT_NAME    = STARLINK-35179
OBJECT_ID      = 2025-235J
CENTER_NAME    = EARTH
REF_FRAME      = TEME
TIME_SYSTEM    = UTC
MEAN_ELEMENT_THEORY = SGP/SGP4

EPOCH          = 2025-11-14T18:00:02.998944
MEAN_MOTION    = 15.39554532
ECCENTRICITY   = .0001162
INCLINATION    = 53.1594
RA_OF_ASC_NODE = 61.0019
ARG_OF_PERICENTER = 60.7089
MEAN_ANOMALY   = 81.4234

EPHEMERIS_TYPE = 0
CLASSIFICATION_TYPE = U
NORAD_CAT_ID   = 66066
ELEMENT_SET_NO = 999
REV_AT_EPOCH   = 537
BSTAR          = .22062E-2
MEAN_MOTION_DOT = .88688E-3
MEAN_MOTION_DDOT = 0

CCSDS_OMM_VERS = 2.0
CREATION_DATE  = 
ORIGINATOR     = 

OBJECT_NAME    = STARLINK-35401
OBJECT_ID      = 2025-235K
CENTER_NAME    = EARTH
REF_FRAME      = TEME
TIME_SYSTEM    = UTC
MEAN_ELEMENT_THEORY = SGP/SGP4

EPOCH          = 2025-11-14T18:00:02.998944
MEAN_MOTION    = 15.45803427
ECCENTRICITY   = .0001206
INCLINATION    = 53.1596
RA_OF_ASC_NODE = 60.9286
ARG_OF_PERICENTER = 68.5381
MEAN_ANOMALY   = 109.7255

EPHEMERIS_TYPE = 0
CLASSIFICATION_TYPE = U
NORAD_CAT_ID   = 66067
ELEMENT_SET_NO = 999
REV_AT_EPOCH   = 532
BSTAR          = -.45767E-1
MEAN_MOTION_DOT = -.2009507E-1
MEAN_MOTION_DDOT = 0

CCSDS_OMM_VERS = 2.0
CREATION_DATE  = 
ORIGINATOR     = 

OBJECT_NAME    = STARLINK-35422
OBJECT_ID      = 2025-235L
CENTER_NAME    = EARTH
REF_FRAME      = TEME
TIME_SYSTEM    = UTC
MEAN_ELEMENT_THEORY = SGP/SGP4

EPOCH          = 2025-11-14T14:06:34.085664
MEAN_MOTION    = 15.49368779
ECCENTRICITY   = .0001102
INCLINATION    = 53.1597
RA_OF_ASC_NODE = 61.6883
ARG_OF_PERICENTER = 121.7751
MEAN_ANOMALY   = 238.3365

EPHEMERIS_TYPE = 0
CLASSIFICATION_TYPE = U
NORAD_CAT_ID   = 66068
ELEMENT_SET_NO = 999
REV_AT_EPOCH   = 524
BSTAR          = .16736E-2
MEAN_MOTION_DOT = .93953E-3
MEAN_MOTION_DDOT = 0

CCSDS_OMM_VERS = 2.0
CREATION_DATE  = 
ORIGINATOR     = 

OBJECT_NAME    = STARLINK-35279
OBJECT_ID      = 2025-235M
CENTER_NAME    = EARTH
REF_FRAME      = TEME
TIME_SYSTEM    = UTC
MEAN_ELEMENT_THEORY = SGP/SGP4

EPOCH          = 2025-11-14T18:44:45.458016
MEAN_MOTION    = 15.49334172
ECCENTRICITY   = .0000864
INCLINATION    = 53.1598
RA_OF_ASC_NODE = 60.7620
ARG_OF_PERICENTER = 74.2514
MEAN_ANOMALY   = 285.8590

EPHEMERIS_TYPE = 0
CLASSIFICATION_TYPE = U
NORAD_CAT_ID   = 66069
ELEMENT_SET_NO = 999
REV_AT_EPOCH   = 530
BSTAR          = .14274E-2
MEAN_MOTION_DOT = .79826E-3
MEAN_MOTION_DDOT = 0

CCSDS_OMM_VERS = 2.0
CREATION_DATE  = 
ORIGINATOR     = 

OBJECT_NAME    = STARLINK-35295
OBJECT_ID      = 2025-235N
CENTER_NAME    = EARTH
REF_FRAME      = TEME
TIME_SYSTEM    = UTC
MEAN_ELEMENT_THEORY = SGP/SGP4

EPOCH          = 2025-11-14T17:10:52.198752
MEAN_MOTION    = 15.49355242
ECCENTRICITY   = .0000806
INCLINATION    = 53.1598
RA_OF_ASC_NODE = 61.0662
ARG_OF_PERICENTER = 77.1167
MEAN_ANOMALY   = 282.9932

EPHEMERIS_TYPE = 0
CLASSIFICATION_TYPE = U
NORAD_CAT_ID   = 66070
ELEMENT_SET_NO = 999
REV_AT_EPOCH   = 529
BSTAR          = .14345E-2
MEAN_MOTION_DOT = .80289E-3
MEAN_MOTION_DDOT = 0

